{
    "CCSDS_OMM_VERS": "3.0",
    "COMMENT": "GENERATED VIA SPACE-TRACK.ORG API",
    "CREATION_DATE": "2025-05-16T19:15:53",
    "ORIGINATOR": "18 SPCS",
    "OBJECT_NAME": "NAVSTAR 80 (USA 309)",
    "OBJECT_ID": "2020-078A",
    "CENTER_NAME": "EARTH",
    "REF_FRAME": "TEME",
    "TIME_SYSTEM": "UTC",
    "MEAN_ELEMENT_THEORY": "SGP4",
    "EPOCH": "2025-05-16T10:17:15.112896",
    "MEAN_MOTION": "2.00558349",
    "ECCENTRICITY": "0.00586230",
    "INCLINATION": "54.0676",
    "RA_OF_ASC_NODE": "226.8749",
    "ARG_OF_PERICENTER": "200.9920",
    "MEAN_ANOMALY": "177.8876",
    "EPHEMERIS_TYPE": "0",
    "CLASSIFICATION_TYPE": "U",
    "NORAD_CAT_ID": "46826",
    "ELEMENT_SET_NO": "999",
    "REV_AT_EPOCH": "3355",
    "BSTAR": "0.00000000000000",
    "MEAN_MOTION_DOT": "0.00000020",
    "MEAN_MOTION_DDOT": "0.0000000000000",
    "SEMIMAJOR_AXIS": "26560.812",
    "PERIOD": "717.996",
    "APOAPSIS": "20338.384",
    "PERIAPSIS": "20026.969",
    "OBJECT_TYPE": "PAYLOAD",
    "RCS_SIZE": "LARGE",
    "COUNTRY_CODE": "US",
    "LAUNCH_DATE": "2020-11-05",
    "SITE": "AFETR",
    "DECAY_DATE": null,
    "FILE": "4730293",
    "GP_ID": "287707570",
    "TLE_LINE0": "0 NAVSTAR 80 (USA 309)",
    "TLE_LINE1": "1 46826U 20078A   25136.42864714  .00000020  00000-0  00000-0 0  9998",
    "TLE_LINE2": "2 46826  54.0676 226.8749 0058623 200.9920 177.8876  2.00558349 33556"
}